     3.04           N: GNSS NAV DATA    M: MIXED            RINEX VERSION / TYPE
ssrcrin-15.6.1x                         20250101 201500 UTC PGM / RUN BY / DATE 
    18                                                      LEAP SECONDS        
                                                            END OF HEADER       
E26 2025 01 01 20 10 00-1.662603463046E-04 1.092814727599E-11 0.000000000000E+00
     4.500000000000E+01 1.746250000000E+02 2.773686963767E-09 2.259832604424E+00
     8.227303624153E-06 3.933435073122E-04 8.884817361832E-07 5.440606245041E+03
     3.318000000000E+05 3.725290298462E-08-1.776974516407E+00 4.284083843231E-08
     9.930091920301E-01 3.352812500000E+02-1.484765823051E+00-5.681665235591E-09
     1.975082270104E-10 2.580000000000E+02 2.347000000000E+03
     3.120000000000E+00 0.000000000000E+00-6.752088665962E-09 0.000000000000E+00
     3.327400000000E+05
S44 2025 01 01 20 26 40 8.414499461651E-07 0.000000000000E+00 3.327920000000E+05
     7.320509280000E+03-1.485000000000E-03 0.000000000000E+00 6.300000000000E+01
     4.149229688000E+04-2.262500000000E-04 2.000000000000E-07 3.276700000000E+04
     1.925724000000E+03-5.024000000000E-03-5.062500000000E-06 6.000000000000E+01
S21 2025 01 01 20 27 12 0.000000000000E+00 0.000000000000E+00 3.328320000000E+05
     4.200468400000E+04 0.000000000000E+00 0.000000000000E+00 6.300000000000E+01
    -3.674932960000E+03 0.000000000000E+00 0.000000000000E+00 3.276700000000E+04
     0.000000000000E+00 0.000000000000E+00 0.000000000000E+00 4.200000000000E+01
S36 2025 01 01 20 27 12 0.000000000000E+00 0.000000000000E+00 3.328400000000E+05
     4.200368800000E+04 0.000000000000E+00 0.000000000000E+00 6.300000000000E+01
     3.674846960000E+03 0.000000000000E+00 0.000000000000E+00 3.276700000000E+04
     0.000000000000E+00 0.000000000000E+00 0.000000000000E+00 1.230000000000E+02
S23 2025 01 01 20 27 28 0.000000000000E+00 0.000000000000E+00 3.328620000000E+05
     3.866796400000E+04 0.000000000000E+00 0.000000000000E+00 6.300000000000E+01
     1.681330800000E+04 0.000000000000E+00 0.000000000000E+00 3.276700000000E+04
     0.000000000000E+00 0.000000000000E+00 0.000000000000E+00 6.000000000000E+01
S44 2025 01 01 20 28 48 8.414499461651E-07 0.000000000000E+00 3.329120000000E+05
     7.320319280000E+03-1.483750000000E-03 0.000000000000E+00 6.300000000000E+01
     4.149227128000E+04-1.731250000000E-04 2.000000000000E-07 3.276700000000E+04
     1.924997200000E+03-6.332000000000E-03-5.062500000000E-06 6.000000000000E+01
S27 2025 01 01 20 29 52 2.421438694000E-07 9.549694368616E-11 3.329690000000E+05
     2.417242232000E+04 3.945000000000E-03-1.875000000000E-07 3.100000000000E+01
     3.459159912000E+04-3.653125000000E-03-1.125000000000E-07 4.096000000000E+03
     1.663100000000E+02 3.921600000000E-02-8.750000000000E-07 3.000000000000E+01
S28 2025 01 01 20 29 52 4.139728844166E-07 4.547473508865E-12 3.329690000000E+05
     5.137217680000E+03 1.683125000000E-03-1.250000000000E-07 6.300000000000E+01
     4.186464392000E+04-1.290625000000E-03-2.500000000000E-08 3.276700000000E+04
    -1.622400000000E+00-1.620000000000E-03 0.000000000000E+00 3.000000000000E+01
S23 2025 01 01 20 29 36 0.000000000000E+00 0.000000000000E+00 3.329850000000E+05
     3.866796400000E+04 0.000000000000E+00 0.000000000000E+00 6.300000000000E+01
     1.681330800000E+04 0.000000000000E+00 0.000000000000E+00 3.276700000000E+04
     0.000000000000E+00 0.000000000000E+00 0.000000000000E+00 6.100000000000E+01
S36 2025 01 01 20 29 52 0.000000000000E+00 0.000000000000E+00 3.329920000000E+05
     4.200368800000E+04 0.000000000000E+00 0.000000000000E+00 6.300000000000E+01
     3.674846960000E+03 0.000000000000E+00 0.000000000000E+00 3.276700000000E+04
     0.000000000000E+00 0.000000000000E+00 0.000000000000E+00 1.240000000000E+02
S21 2025 01 01 20 29 52 0.000000000000E+00 0.000000000000E+00 3.329940000000E+05
     4.200468400000E+04 0.000000000000E+00 0.000000000000E+00 6.300000000000E+01
    -3.674932960000E+03 0.000000000000E+00 0.000000000000E+00 3.276700000000E+04
     0.000000000000E+00 0.000000000000E+00 0.000000000000E+00 4.300000000000E+01
